{"type": "FeatureCollection", "features": [ {"type": "Feature", "properties": {"norad_id": 66579, "name": "STARLINK-35868", "group": "last-30-days", "lat": -36.73530040383384, "lon": -0.14675121283542436, "alt_km": 417.2933145797224, "timestamp": "2025-12-11T18:59:44.810661+00:00", "meta": {"OBJECT_NAME": "STARLINK-35868", "OBJECT_ID": "2025-268Y", "EPOCH": "2025-12-11T06:00:02.999808", "MEAN_MOTION": 15.50605737, "ECCENTRICITY": 0.00016642, "INCLINATION": 43.0003, "RA_OF_ASC_NODE": 129.8038, "ARG_OF_PERICENTER": 269.2222, "MEAN_ANOMALY": 186.0121, "EPHEMERIS_TYPE": 0, "CLASSIFICATION_TYPE": "U", "NORAD_CAT_ID": 66579, "ELEMENT_SET_NO": 999, "REV_AT_EPOCH": 442, "BSTAR": -0.001188229, "MEAN_MOTION_DOT": -0.00069501, "MEAN_MOTION_DDOT": 0}, "tle": {"line1": "1 66579U 25268Y   25345.25003472 -.00069501  00000+0 -11882-2 0  9992", "line2": "2 66579  43.0003 129.8038 0001664 269.2222 186.0121 15.50605737  4426"}}, "geometry": {"type": "Point", "coordinates": [-0.14675121283542436, -36.73530040383384]}}, {"type": "Feature", "properties": {"norad_id": 66580, "name": "STARLINK-35872", "group": "last-30-days", "lat": -37.495657276656985, "lon": 2.049086202127783, "alt_km": 417.38157557061186, "timestamp": "2025-12-11T18:59:44.810673+00:00", "meta": {"OBJECT_NAME": "STARLINK-35872", "OBJECT_ID": "2025-268Z", "EPOCH": "2025-12-11T06:00:02.999808", "MEAN_MOTION": 15.50602782, "ECCENTRICITY": 0.00015585, "INCLINATION": 43.0003, "RA_OF_ASC_NODE": 129.7995, "ARG_OF_PERICENTER": 269.3262, "MEAN_ANOMALY": 187.8266, "EPHEMERIS_TYPE": 0, "CLASSIFICATION_TYPE": "U", "NORAD_CAT_ID": 66580, "ELEMENT_SET_NO": 999, "REV_AT_EPOCH": 442, "BSTAR": -0.0011745603, "MEAN_MOTION_DOT": -0.00068704, "MEAN_MOTION_DDOT": 0}, "tle": {"line1": "1 66580U 25268Z   25345.25003472 -.00068704  00000+0 -11746-2 0  9997", "line2": "2 66580  43.0003 129.7995 0001558 269.3262 187.8266 15.50602782  4422"}}, "geometry": {"type": "Point", "coordinates": [2.049086202127783, -37.495657276656985]}}, {"type": "Feature", "properties": {"norad_id": 66581, "name": "STARLINK-35744", "group": "last-30-days", "lat": -38.19945711733875, "lon": 4.23936316276551, "alt_km": 417.2087981923223, "timestamp": "2025-12-11T18:59:44.810684+00:00", "meta": {"OBJECT_NAME": "STARLINK-35744", "OBJECT_ID": "2025-268AA", "EPOCH": "2025-12-11T06:00:02.999808", "MEAN_MOTION": 15.50563179, "ECCENTRICITY": 0.00016673, "INCLINATION": 43.0003, "RA_OF_ASC_NODE": 129.7941, "ARG_OF_PERICENTER": 261.5705, "MEAN_ANOMALY": 197.4691, "EPHEMERIS_TYPE": 0, "CLASSIFICATION_TYPE": "U", "NORAD_CAT_ID": 66581, "ELEMENT_SET_NO": 999, "REV_AT_EPOCH": 438, "BSTAR": -0.00017363781, "MEAN_MOTION_DOT": -0.00010509, "MEAN_MOTION_DDOT": 0}, "tle": {"line1": "1 66581U 25268AA  25345.25003472 -.00010509  00000+0 -17364-3 0  9991", "line2": "2 66581  43.0003 129.7941 0001667 261.5705 197.4691 15.50563179  4381"}}, "geometry": {"type": "Point", "coordinates": [4.23936316276551, -38.19945711733875]}}, {"type": "Feature", "properties": {"norad_id": 66582, "name": "STARLINK-35746", "group": "last-30-days", "lat": -38.89112461763293, "lon": 6.575733504854251, "alt_km": 417.30759925451184, "timestamp": "2025-12-11T18:59:44.810694+00:00", "meta": {"OBJECT_NAME": "STARLINK-35746", "OBJECT_ID": "2025-268AB", "EPOCH": "2025-12-11T06:00:02.999808", "MEAN_MOTION": 15.50598115, "ECCENTRICITY": 0.0001711, "INCLINATION": 43.0003, "RA_OF_ASC_NODE": 129.789, "ARG_OF_PERICENTER": 268.9021, "MEAN_ANOMALY": 192.0853, "EPHEMERIS_TYPE": 0, "CLASSIFICATION_TYPE": "U", "NORAD_CAT_ID": 66582, "ELEMENT_SET_NO": 999, "REV_AT_EPOCH": 442, "BSTAR": -0.0010422001, "MEAN_MOTION_DOT": -0.00061051, "MEAN_MOTION_DDOT": 0}, "tle": {"line1": "1 66582U 25268AB  25345.25003472 -.00061051  00000+0 -10422-2 0  9997", "line2": "2 66582  43.0003 129.7890 0001711 268.9021 192.0853 15.50598115  4421"}}, "geometry": {"type": "Point", "coordinates": [6.575733504854251, -38.89112461763293]}}, {"type": "Feature", "properties": {"norad_id": 66583, "name": "STARLINK-35941", "group": "last-30-days", "lat": -39.52194035927034, "lon": 8.905852409862751, "alt_km": 417.33545305482585, "timestamp": "2025-12-11T18:59:44.810704+00:00", "meta": {"OBJECT_NAME": "STARLINK-35941", "OBJECT_ID": "2025-268AC", "EPOCH": "2025-12-11T06:00:02.999808", "MEAN_MOTION": 15.50602254, "ECCENTRICITY": 0.00017151, "INCLINATION": 43.0003, "RA_OF_ASC_NODE": 129.7844, "ARG_OF_PERICENTER": 269.9825, "MEAN_ANOMALY": 192.9225, "EPHEMERIS_TYPE": 0, "CLASSIFICATION_TYPE": "U", "NORAD_CAT_ID": 66583, "ELEMENT_SET_NO": 999, "REV_AT_EPOCH": 442, "BSTAR": -0.0011590255, "MEAN_MOTION_DOT": -0.00067808, "MEAN_MOTION_DDOT": 0}, "tle": {"line1": "1 66583U 25268AC  25345.25003472 -.00067808  00000+0 -11590-2 0  9991", "line2": "2 66583  43.0003 129.7844 0001715 269.9825 192.9225 15.50602254  4420"}}, "geometry": {"type": "Point", "coordinates": [8.905852409862751, -39.52194035927034]}}, {"type": "Feature", "properties": {"norad_id": 66584, "name": "STARLINK-35939", "group": "last-30-days", "lat": -40.11609509750493, "lon": 11.324022575132245, "alt_km": 417.5928496105571, "timestamp": "2025-12-11T18:59:44.810716+00:00", "meta": {"OBJECT_NAME": "STARLINK-35939", "OBJECT_ID": "2025-268AD", "EPOCH": "2025-12-11T06:00:02.999808", "MEAN_MOTION": 15.50665469, "ECCENTRICITY": 0.00016372, "INCLINATION": 43.0003, "RA_OF_ASC_NODE": 129.78, "ARG_OF_PERICENTER": 269.2336, "MEAN_ANOMALY": 195.6388, "EPHEMERIS_TYPE": 0, "CLASSIFICATION_TYPE": "U", "NORAD_CAT_ID": 66584, "ELEMENT_SET_NO": 999, "REV_AT_EPOCH": 442, "BSTAR": -0.0033514396, "MEAN_MOTION_DOT": -0.00192791, "MEAN_MOTION_DDOT": 0}, "tle": {"line1": "1 66584U 25268AD  25345.25003472 -.00192791  00000+0 -33514-2 0  9992", "line2": "2 66584  43.0003 129.7800 0001637 269.2336 195.6388 15.50665469  4423"}}, "geometry": {"type": "Point", "coordinates": [11.324022575132245, -40.11609509750493]}}, {"type": "Feature", "properties": {"norad_id": 66585, "name": "STARLINK-35963", "group": "last-30-days", "lat": -40.63978977061221, "lon": 13.69055549564205, "alt_km": 417.4095665644045, "timestamp": "2025-12-11T18:59:44.810728+00:00", "meta": {"OBJECT_NAME": "STARLINK-35963", "OBJECT_ID": "2025-268AE", "EPOCH": "2025-12-11T06:00:02.999808", "MEAN_MOTION": 15.50599916, "ECCENTRICITY": 0.00015558, "INCLINATION": 43.0004, "RA_OF_ASC_NODE": 129.7754, "ARG_OF_PERICENTER": 265.2075, "MEAN_ANOMALY": 201.5295, "EPHEMERIS_TYPE": 0, "CLASSIFICATION_TYPE": "U", "NORAD_CAT_ID": 66585, "ELEMENT_SET_NO": 999, "REV_AT_EPOCH": 442, "BSTAR": -0.0010160285, "MEAN_MOTION_DOT": -0.0005954, "MEAN_MOTION_DDOT": 0}, "tle": {"line1": "1 66585U 25268AE  25345.25003472 -.00059540  00000+0 -10160-2 0  9999", "line2": "2 66585  43.0004 129.7754 0001555 265.2075 201.5295 15.50599916  4425"}}, "geometry": {"type": "Point", "coordinates": [13.69055549564205, -40.63978977061221]}}, {"type": "Feature", "properties": {"norad_id": 66586, "name": "TJS-21", "group": "last-30-days", "lat": 44.34426655816723, "lon": -168.04784296953986, "alt_km": 24247.795873159896, "timestamp": "2025-12-11T18:59:44.810778+00:00", "meta": {"OBJECT_NAME": "TJS-21", "OBJECT_ID": "2025-269A", "EPOCH": "2025-12-10T17:31:22.184832", "MEAN_MOTION": 2.00567425, "ECCENTRICITY": 0.6805766, "INCLINATION": 63.269, "RA_OF_ASC_NODE": 162.5612, "ARG_OF_PERICENTER": 269.7806, "MEAN_ANOMALY": 18.6565, "EPHEMERIS_TYPE": 0, "CLASSIFICATION_TYPE": "U", "NORAD_CAT_ID": 66586, "ELEMENT_SET_NO": 999, "REV_AT_EPOCH": 39, "BSTAR": -0.044965385, "MEAN_MOTION_DOT": 1.083e-05, "MEAN_MOTION_DDOT": 0}, "tle": {"line1": "1 66586U 25269A   25344.73011788  .00001083  00000+0 -44965-1 0  9999", "line2": "2 66586  63.2690 162.5612 6805766 269.7806  18.6565  2.00567425   392"}}, "geometry": {"type": "Point", "coordinates": [-168.04784296953986, 44.34426655816723]}}, {"type": "Feature", "properties": {"norad_id": 66587, "name": "CZ-3B R/B", "group": "last-30-days", "lat": -4.371938512916389, "lon": 166.28375706987026, "alt_km": 14072.308022307734, "timestamp": "2025-12-11T18:59:44.810797+00:00", "meta": {"OBJECT_NAME": "CZ-3B R/B", "OBJECT_ID": "2025-269B", "EPOCH": "2025-12-10T19:33:40.006368", "MEAN_MOTION": 2.03086829, "ECCENTRICITY": 0.7519519, "INCLINATION": 51.3442, "RA_OF_ASC_NODE": 170.0917, "ARG_OF_PERICENTER": 228.3676, "MEAN_ANOMALY": 37.5722, "EPHEMERIS_TYPE": 0, "CLASSIFICATION_TYPE": "U", "NORAD_CAT_ID": 66587, "ELEMENT_SET_NO": 999, "REV_AT_EPOCH": 41, "BSTAR": 0.0011692039, "MEAN_MOTION_DOT": 0.00057137, "MEAN_MOTION_DDOT": 1.092514e-06}, "tle": {"line1": "1 66587U 25269B   25344.81504637  .00057137  10925-5  11692-2 0  9994", "line2": "2 66587  51.3442 170.0917 7519519 228.3676  37.5722  2.03086829   418"}}, "geometry": {"type": "Point", "coordinates": [166.28375706987026, -4.371938512916389]}}, {"type": "Feature", "properties": {"norad_id": 66588, "name": "STARLINK-36076", "group": "last-30-days", "lat": 33.85328804139417, "lon": -27.75349979476995, "alt_km": 417.2023496040556, "timestamp": "2025-12-11T18:59:44.810810+00:00", "meta": {"OBJECT_NAME": "STARLINK-36076", "OBJECT_ID": "2025-270A", "EPOCH": "2025-12-11T06:00:02.999808", "MEAN_MOTION": 15.50320444, "ECCENTRICITY": 0.00010047, "INCLINATION": 43, "RA_OF_ASC_NODE": 201.4495, "ARG_OF_PERICENTER": 242.0207, "MEAN_ANOMALY": 99.7651, "EPHEMERIS_TYPE": 0, "CLASSIFICATION_TYPE": "U", "NORAD_CAT_ID": 66588, "ELEMENT_SET_NO": 999, "REV_AT_EPOCH": 416, "BSTAR": -0.036583456, "MEAN_MOTION_DOT": -0.01909478, "MEAN_MOTION_DDOT": 0}, "tle": {"line1": "1 66588U 25270A   25345.25003472 -.01909478  00000+0 -36583-1 0  9996", "line2": "2 66588  43.0000 201.4495 0001004 242.0207  99.7651 15.50320444  4165"}}, "geometry": {"type": "Point", "coordinates": [-27.75349979476995, 33.85328804139417]}}]}